GLOBALSTAR M084         
1 38040U 11080A   25285.64917428 -.00000097  00000+0  38584-4 0  9996
2 38040  52.0020  50.8741 0000386 103.0281 270.5106 12.62269387637501
GLOBALSTAR M080         
1 38041U 11080B   25285.62066970 -.00000106  00000+0 -10367-4 0  9993
2 38041  52.0071  52.5940 0001148  90.9678 282.2142 12.62269597637625
GLOBALSTAR M082         
1 38042U 11080C   25285.66914829 -.00000062  00000+0  23142-3 0  9997
2 38042  52.0107   7.9223 0000881 100.9774  63.3239 12.62263681638338
GLOBALSTAR M092         
1 38043U 11080D   25285.62827789 -.00000102  00000+0  80325-5 0  9995
2 38043  52.0063  98.4294 0000849  91.9163   5.5808 12.62266956636783
GLOBALSTAR M090         
1 38044U 11080E   25285.52370310 -.00000086  00000+0  10189-3 0  9998
2 38044  52.0152   2.2417 0000640 117.9853 344.2240 12.62262696638431
GLOBALSTAR M086         
1 38045U 11080F   25285.63793991 -.00000087  00000+0  91292-4 0  9991
2 38045  51.9925   2.2264 0000927 191.2570 316.2693 12.62277946638397
GLOBALSTAR M097         
1 39072U 13005A   25285.23705531 -.00000073  00000+0  17138-3 0  9991
2 39072  52.0040 278.1197 0000409  97.9500 262.1413 12.62266516585590
GLOBALSTAR M093         
1 39073U 13005B   25285.36941126 -.00000071  00000+0  18413-3 0  9993
2 39073  52.0094 270.9697 0000545 111.2946 248.7979 12.62265230585566
